[
    {
        "Altitude(m)": 624792.7402116742,
        "Argument of Periapsis(deg)": 0.0,
        "Eccentricity": 0.0,
        "Inclination(deg)": 60.0,
        "Latitude(deg)": -59.14699098187578,
        "Longitude(deg)": 74.02646563087109,
        "Mean Anomaly(deg)": -98.18179999999998,
        "RAAN(deg)": 280.0,
        "Satellite Name": "Test1 1248",
        "Satellite Number": 1248,
        "Semi-Major Axis(m)": 6980739.136638005,
        "Time(s)": 0
    },
    {
        "Altitude(m)": 624842.1320927122,
        "Argument of Periapsis(deg)": 0.00010418945913296404,
        "Eccentricity": 0.0,
        "Inclination(deg)": 60.0,
        "Latitude(deg)": -59.28907385027771,
        "Longitude(deg)": 75.1559668463825,
        "Mean Anomaly(deg)": -97.56169385453813,
        "RAAN(deg)": 279.99957995086027,
        "Satellite Name": "Test1 1248",
        "Satellite Number": 1248,
        "Semi-Major Axis(m)": 6980739.136638005,
        "Time(s)": 10
    }
]